     3.04           N: GNSS NAV DATA    G: GPS              RINEX VERSION / TYPE
RTKCONV demo5 b34i                      20250513 051928 UTC PGM / RUN BY / DATE 
format: u-blox UBX                                          COMMENT             
log: D:\20242\NGUYENDS\GNSS_DOA_Spoofing\hai\2025-04-17_13\rCOMMENT             
                                                            END OF HEADER       
G13 2025 04 17 14 00 00  .700484029949D-03  .341060513165D-12  .000000000000D+00
      .330000000000D+02 -.130312500000D+02  .434375236329D-08  .120241241088D+01
     -.726431608200D-06  .903144909535D-02  .712461769581D-05  .515367968369D+04
      .396000000000D+06 -.109896063805D-06 -.150354305685D+01  .949949026108D-07
      .973144249376D+00  .248718750000D+03  .953731070453D+00 -.794711674360D-08
      .417160233541D-09  .100000000000D+01  .236200000000D+04  .000000000000D+00
      .200000000000D+01  .000000000000D+00 -.116415321827D-07  .330000000000D+02
      .395196000000D+06  .400000000000D+01
G15 2025 04 17 14 00 00  .286380760372D-03  .420641299570D-11  .000000000000D+00
      .105000000000D+03 -.180000000000D+02  .503592405216D-08  .382156237793D+00
     -.867992639542D-06  .161826938856D-01  .803172588348D-05  .515378904343D+04
      .396000000000D+06 -.236555933952D-06 -.181051296814D+01 -.279396772385D-07
      .938444830245D+00  .217531250000D+03  .140602367812D+01 -.843035115796D-08
      .418588864478D-09  .100000000000D+01  .236200000000D+04  .000000000000D+00
      .200000000000D+01  .000000000000D+00 -.102445483208D-07  .105000000000D+03
      .392436000000D+06  .400000000000D+01
G24 2025 04 17 13 59 44 -.420236960053D-03  .682121026330D-11  .000000000000D+00
      .400000000000D+01 -.138437500000D+02  .555808865956D-08 -.422413082286D+00
     -.556930899620D-06  .166051390115D-01  .630691647530D-05  .515367264748D+04
      .395984000000D+06 -.484287738800D-07 -.703836618375D+00  .210478901863D-06
      .934230232016D+00  .249406250000D+03  .105654398169D+01 -.866678957800D-08
     -.182150444440D-10  .100000000000D+01  .236200000000D+04  .000000000000D+00
      .200000000000D+01  .000000000000D+00  .232830643654D-08  .400000000000D+01
      .392436000000D+06  .400000000000D+01
G18 2025 04 17 14 14 40 -.635923352093D-03  .409272615798D-11  .000000000000D+00
      .780000000000D+02 -.383750000000D+02  .428124975981D-08 -.438066288179D+00
     -.221468508244D-05  .495645264164D-02  .276975333691D-05  .515369652557D+04
      .396880000000D+06  .117346644402D-06  .256022402034D+01  .633299350739D-07
      .973827446748D+00  .332937500000D+03 -.295467588270D+01 -.818426947910D-08
     -.298941023522D-09  .100000000000D+01  .236200000000D+04  .000000000000D+00
      .200000000000D+01  .000000000000D+00 -.838190317154D-08  .780000000000D+02
      .392436000000D+06  .400000000000D+01
G29 2025 04 17 14 00 00 -.516823492944D-03  .420641299570D-11  .000000000000D+00
      .720000000000D+02  .984687500000D+02  .445661420730D-08  .141500041556D+01
      .510737299919D-05  .316509243567D-02  .419281423092D-05  .515367154884D+04
      .396000000000D+06  .149011611938D-07  .156833337108D+01 -.484287738800D-07
      .966283481037D+00  .295781250000D+03  .262457494712D+01 -.815069665209D-08
     -.160720980388D-10  .100000000000D+01  .236200000000D+04  .000000000000D+00
      .200000000000D+01  .000000000000D+00 -.977888703346D-08  .720000000000D+02
      .392436000000D+06  .400000000000D+01
G23 2025 04 17 14 00 00  .461145304143D-03  .682121026330D-11  .000000000000D+00
      .900000000000D+02 -.836875000000D+02  .360979321952D-08 -.167130554582D+01
     -.432133674622D-05  .510596879758D-02  .816024839878D-05  .515364387703D+04
      .396000000000D+06 -.745058059692D-07 -.272035907534D+01 -.141561031342D-06
      .984089053431D+00  .236843750000D+03 -.284330338074D+01 -.749102631703D-08
      .100004165575D-09  .100000000000D+01  .236200000000D+04  .000000000000D+00
      .200000000000D+01  .000000000000D+00 -.838190317154D-08  .346000000000D+03
      .392436000000D+06  .400000000000D+01
G05 2025 04 17 14 00 00 -.207495875657D-03 -.102318153949D-11  .000000000000D+00
      .280000000000D+02 -.999687500000D+02  .384694595503D-08  .175021328137D+01
     -.529736280441D-05  .569041853305D-02  .796839594841D-05  .515379192162D+04
      .396000000000D+06  .223517417908D-07 -.274283001930D+01 -.119209289551D-06
      .976201051812D+00  .237468750000D+03  .132571609381D+01 -.775496588260D-08
      .153577825704D-10  .100000000000D+01  .236200000000D+04  .000000000000D+00
      .200000000000D+01  .000000000000D+00 -.107102096081D-07  .280000000000D+02
      .392436000000D+06  .400000000000D+01
G32 2025 04 17 14 00 00 -.475160777569D-03  .954969436862D-11  .000000000000D+00
      .150000000000D+02 -.138125000000D+02  .432410868791D-08  .211074512055D+01
     -.676140189171D-06  .857046165038D-02  .751204788685D-05  .515359414291D+04
      .396000000000D+06 -.204890966415D-07 -.165844068227D+01 -.244006514549D-06
      .964216608932D+00  .235031250000D+03 -.206486266701D+01 -.778782439415D-08
      .522164607395D-09  .100000000000D+01  .236200000000D+04  .000000000000D+00
      .200000000000D+01  .000000000000D+00  .931322574615D-09  .150000000000D+02
      .392436000000D+06  .400000000000D+01
G10 2025 04 17 14 00 00 -.393414869905D-03 -.130739863380D-10  .000000000000D+00
      .870000000000D+02 -.811875000000D+02  .345085802780D-08 -.286300465065D+01
     -.425428152084D-05  .101053171093D-01  .855140388012D-05  .515365524292D+04
      .396000000000D+06  .130385160446D-07 -.268981984705D+01 -.894069671631D-07
      .988986945585D+00  .228656250000D+03 -.230986805418D+01 -.733923428000D-08
      .137862885400D-09  .100000000000D+01  .236200000000D+04  .000000000000D+00
      .200000000000D+01  .000000000000D+00  .279396772385D-08  .870000000000D+02
      .392436000000D+06  .400000000000D+01
G12 2025 04 17 14 00 00 -.580429565161D-03 -.181898940355D-11  .000000000000D+00
      .830000000000D+02  .662187500000D+02  .445911431144D-08 -.209644474230D+01
      .351294875145D-05  .890859775245D-02  .992976129055D-05  .515370902061D+04
      .396000000000D+06  .987201929092D-07  .515047316737D+00  .651925802231D-07
      .960871381956D+00  .187875000000D+03  .149870609963D+01 -.767996275842D-08
     -.209294432239D-09  .100000000000D+01  .236200000000D+04  .000000000000D+00
      .200000000000D+01  .000000000000D+00 -.125728547573D-07  .830000000000D+02
      .392436000000D+06  .400000000000D+01
G15 2025 04 17 13 59 44  .286379363388D-03  .420641299570D-11  .000000000000D+00
      .130000000000D+02 -.180000000000D+02  .503556689443D-08  .379822712295D+00
     -.867992639542D-06  .161826914409D-01  .803172588348D-05  .515378903961D+04
      .395984000000D+06 -.236555933952D-06 -.181051281892D+01 -.279396772385D-07
      .938444817079D+00  .217531250000D+03  .140602364301D+01 -.843035115796D-08
      .418588864478D-09  .100000000000D+01  .236200000000D+04  .000000000000D+00
      .200000000000D+01  .000000000000D+00 -.102445483208D-07  .130000000000D+02
      .394266000000D+06  .400000000000D+01
G27 2025 04 17 14 00 00 -.275988131762D-04  .682121026330D-12  .000000000000D+00
      .320000000000D+02  .921875000000D+02  .472233956154D-08  .151699444084D+01
      .480003654957D-05  .135051640682D-01  .528804957867D-05  .515369549370D+04
      .396000000000D+06 -.314787030220D-06  .148190641215D+01  .100582838058D-06
      .957055006120D+00  .279250000000D+03  .840731401277D+00 -.831856078716D-08
     -.928610108910D-11  .100000000000D+01  .236200000000D+04  .000000000000D+00
      .200000000000D+01  .000000000000D+00  .232830643654D-08  .320000000000D+02
      .394626000000D+06  .400000000000D+01
G25 2025 04 17 14 00 00  .490177888423D-03 -.102318153949D-11  .000000000000D+00
      .300000000000D+02  .504062500000D+02  .471591072233D-08 -.220125509701D+01
      .254251062870D-05  .123142664088D-01  .966526567936D-05  .515364521980D+04
      .396000000000D+06  .124797224998D-06  .424836082780D+00 -.111758708954D-07
      .949058773433D+00  .185750000000D+03  .112368150701D+01 -.775889461768D-08
     -.166792661870D-09  .100000000000D+01  .236200000000D+04  .000000000000D+00
      .200000000000D+01  .000000000000D+00  .558793544769D-08  .300000000000D+02
      .395376000000D+06  .400000000000D+01
